[{"OBJECT_NAME":"COSMOS 1812","OBJECT_ID":"1987-003A","EPOCH":"2026-03-03T07:26:14.907264","MEAN_MOTION":16.23100629,"ECCENTRICITY":0.0007632,"INCLINATION":82.4718,"RA_OF_ASC_NODE":202.9133,"ARG_OF_PERICENTER":288.9282,"MEAN_ANOMALY":71.1181,"EPHEMERIS_TYPE":0,"CLASSIFICATION_TYPE":"U","NORAD_CAT_ID":17295,"ELEMENT_SET_NO":999,"REV_AT_EPOCH":14345,"BSTAR":0.00075298,"MEAN_MOTION_DOT":0.01811126,"MEAN_MOTION_DDOT":-1.2154e-6},{"OBJECT_NAME":"IRIDIUM 51","OBJECT_ID":"1998-018A","EPOCH":"2026-03-03T04:35:11.048640","MEAN_MOTION":15.98721156,"ECCENTRICITY":0.0018186,"INCLINATION":86.3538,"RA_OF_ASC_NODE":284.0601,"ARG_OF_PERICENTER":310.7344,"MEAN_ANOMALY":49.2361,"EPHEMERIS_TYPE":0,"CLASSIFICATION_TYPE":"U","NORAD_CAT_ID":25262,"ELEMENT_SET_NO":999,"REV_AT_EPOCH":48731,"BSTAR":0.0012763,"MEAN_MOTION_DOT":0.00610843,"MEAN_MOTION_DDOT":0.00016141},{"OBJECT_NAME":"CZ-2D DEB","OBJECT_ID":"2005-024J","EPOCH":"2026-03-01T21:43:49.210752","MEAN_MOTION":15.92111318,"ECCENTRICITY":0.0004089,"INCLINATION":97.1482,"RA_OF_ASC_NODE":103.0739,"ARG_OF_PERICENTER":145.2826,"MEAN_ANOMALY":214.8716,"EPHEMERIS_TYPE":0,"CLASSIFICATION_TYPE":"U","NORAD_CAT_ID":31409,"ELEMENT_SET_NO":999,"REV_AT_EPOCH":11718,"BSTAR":0.00072484,"MEAN_MOTION_DOT":0.0023946,"MEAN_MOTION_DDOT":2.3346e-5},{"OBJECT_NAME":"ZIYUAN 3-01 (ZY 3-01)","OBJECT_ID":"2012-001A","EPOCH":"2026-03-03T07:24:24.640128","MEAN_MOTION":15.97188649,"ECCENTRICITY":0.00017,"INCLINATION":97.1548,"RA_OF_ASC_NODE":136.8274,"ARG_OF_PERICENTER":245.7415,"MEAN_ANOMALY":114.3685,"EPHEMERIS_TYPE":0,"CLASSIFICATION_TYPE":"U","NORAD_CAT_ID":38046,"ELEMENT_SET_NO":999,"REV_AT_EPOCH":78768,"BSTAR":0.00086807,"MEAN_MOTION_DOT":0.00375384,"MEAN_MOTION_DDOT":5.9323e-5},{"OBJECT_NAME":"HUMSAT-D","OBJECT_ID":"2013-066T","EPOCH":"2026-03-03T00:01:49.252800","MEAN_MOTION":15.98622915,"ECCENTRICITY":0.0007038,"INCLINATION":97.4837,"RA_OF_ASC_NODE":74.488,"ARG_OF_PERICENTER":162.6196,"MEAN_ANOMALY":197.5324,"EPHEMERIS_TYPE":0,"CLASSIFICATION_TYPE":"U","NORAD_CAT_ID":39433,"ELEMENT_SET_NO":999,"REV_AT_EPOCH":67039,"BSTAR":0.0019747,"MEAN_MOTION_DOT":0.00922834,"MEAN_MOTION_DDOT":0.0004038},{"OBJECT_NAME":"H-2A DEB","OBJECT_ID":"2018-084E","EPOCH":"2026-03-03T04:14:15.971136","MEAN_MOTION":15.97952475,"ECCENTRICITY":0.0003265,"INCLINATION":98.0073,"RA_OF_ASC_NODE":277.9348,"ARG_OF_PERICENTER":301.6673,"MEAN_ANOMALY":58.4283,"EPHEMERIS_TYPE":0,"CLASSIFICATION_TYPE":"U","NORAD_CAT_ID":43675,"ELEMENT_SET_NO":999,"REV_AT_EPOCH":40208,"BSTAR":0.0024597,"MEAN_MOTION_DOT":0.01102434,"MEAN_MOTION_DDOT":0.0005968},{"OBJECT_NAME":"SPACEBEE-7","OBJECT_ID":"2018-099BL","EPOCH":"2026-03-02T18:08:26.549376","MEAN_MOTION":16.03076494,"ECCENTRICITY":0.00078214,"INCLINATION":97.4408,"RA_OF_ASC_NODE":148.0919,"ARG_OF_PERICENTER":270.3555,"MEAN_ANOMALY":89.6828,"EPHEMERIS_TYPE":0,"CLASSIFICATION_TYPE":"U","NORAD_CAT_ID":43816,"ELEMENT_SET_NO":999,"REV_AT_EPOCH":39810,"BSTAR":0.0019892206,"MEAN_MOTION_DOT":0.01193306,"MEAN_MOTION_DDOT":0.00078424326},{"OBJECT_NAME":"STARLINK-1112","OBJECT_ID":"2020-001M","EPOCH":"2026-03-03T03:24:18.876096","MEAN_MOTION":16.0534045,"ECCENTRICITY":0.0004106,"INCLINATION":53.0344,"RA_OF_ASC_NODE":275.0662,"ARG_OF_PERICENTER":260.7412,"MEAN_ANOMALY":99.3155,"EPHEMERIS_TYPE":0,"CLASSIFICATION_TYPE":"U","NORAD_CAT_ID":44925,"ELEMENT_SET_NO":999,"REV_AT_EPOCH":34027,"BSTAR":0.00086892,"MEAN_MOTION_DOT":0.00623257,"MEAN_MOTION_DDOT":0.00019939},{"OBJECT_NAME":"STARLINK-1210","OBJECT_ID":"2020-012AF","EPOCH":"2026-03-03T02:38:21.109056","MEAN_MOTION":16.28829972,"ECCENTRICITY":0.0006775,"INCLINATION":53.0002,"RA_OF_ASC_NODE":292.3392,"ARG_OF_PERICENTER":251.9577,"MEAN_ANOMALY":108.0726,"EPHEMERIS_TYPE":0,"CLASSIFICATION_TYPE":"U","NORAD_CAT_ID":45207,"ELEMENT_SET_NO":999,"REV_AT_EPOCH":33586,"BSTAR":0.00086785,"MEAN_MOTION_DOT":0.03659733,"MEAN_MOTION_DDOT":1.2044e-5},{"OBJECT_NAME":"STARLINK-1294","OBJECT_ID":"2020-025W","EPOCH":"2026-03-03T02:18:05.849856","MEAN_MOTION":16.45728679,"ECCENTRICITY":0.0003065,"INCLINATION":53.015,"RA_OF_ASC_NODE":7.4359,"ARG_OF_PERICENTER":236.3782,"MEAN_ANOMALY":123.6975,"EPHEMERIS_TYPE":0,"CLASSIFICATION_TYPE":"U","NORAD_CAT_ID":45551,"ELEMENT_SET_NO":999,"REV_AT_EPOCH":32590,"BSTAR":0.00033071,"MEAN_MOTION_DOT":0.12534528,"MEAN_MOTION_DDOT":1.2493e-5},{"OBJECT_NAME":"STARLINK-1484","OBJECT_ID":"2020-038AC","EPOCH":"2026-03-03T06:00:00.998784","MEAN_MOTION":15.97271812,"ECCENTRICITY":0.0007006,"INCLINATION":52.9991,"RA_OF_ASC_NODE":89.8839,"ARG_OF_PERICENTER":34.1852,"MEAN_ANOMALY":183.5311,"EPHEMERIS_TYPE":0,"CLASSIFICATION_TYPE":"U","NORAD_CAT_ID":45756,"ELEMENT_SET_NO":999,"REV_AT_EPOCH":606,"BSTAR":0.00080952,"MEAN_MOTION_DOT":0.00362575,"MEAN_MOTION_DDOT":6.4728e-5},{"OBJECT_NAME":"STARLINK-1601","OBJECT_ID":"2020-057D","EPOCH":"2026-03-03T02:30:57.399264","MEAN_MOTION":16.23754622,"ECCENTRICITY":0.0006761,"INCLINATION":53.0305,"RA_OF_ASC_NODE":288.3193,"ARG_OF_PERICENTER":253.097,"MEAN_ANOMALY":106.9328,"EPHEMERIS_TYPE":0,"CLASSIFICATION_TYPE":"U","NORAD_CAT_ID":46120,"ELEMENT_SET_NO":999,"REV_AT_EPOCH":30716,"BSTAR":0.001147,"MEAN_MOTION_DOT":0.03094902,"MEAN_MOTION_DDOT":1.1907e-5},{"OBJECT_NAME":"STARLINK-1710","OBJECT_ID":"2020-062F","EPOCH":"2026-03-03T03:17:36.726432","MEAN_MOTION":16.3609265,"ECCENTRICITY":0.0006788,"INCLINATION":53.0175,"RA_OF_ASC_NODE":310.0469,"ARG_OF_PERICENTER":246.8125,"MEAN_ANOMALY":113.2204,"EPHEMERIS_TYPE":0,"CLASSIFICATION_TYPE":"U","NORAD_CAT_ID":46330,"ELEMENT_SET_NO":999,"REV_AT_EPOCH":30467,"BSTAR":0.00086604,"MEAN_MOTION_DOT":0.07607204,"MEAN_MOTION_DDOT":1.2215e-5},{"OBJECT_NAME":"STARLINK-1723","OBJECT_ID":"2020-062J","EPOCH":"2026-03-03T05:07:36.791328","MEAN_MOTION":16.15366371,"ECCENTRICITY":0.0006545,"INCLINATION":53.0373,"RA_OF_ASC_NODE":355.4811,"ARG_OF_PERICENTER":196.3701,"MEAN_ANOMALY":163.7125,"EPHEMERIS_TYPE":0,"CLASSIFICATION_TYPE":"U","NORAD_CAT_ID":46333,"ELEMENT_SET_NO":999,"REV_AT_EPOCH":30403,"BSTAR":0.0012752,"MEAN_MOTION_DOT":0.01711819,"MEAN_MOTION_DDOT":0.0025876},{"OBJECT_NAME":"STARLINK-1738","OBJECT_ID":"2020-062M","EPOCH":"2026-03-03T06:00:00.998784","MEAN_MOTION":15.99460274,"ECCENTRICITY":0.0005119,"INCLINATION":53.0284,"RA_OF_ASC_NODE":313.6853,"ARG_OF_PERICENTER":134.8092,"MEAN_ANOMALY":173.6475,"EPHEMERIS_TYPE":0,"CLASSIFICATION_TYPE":"U","NORAD_CAT_ID":46336,"ELEMENT_SET_NO":999,"REV_AT_EPOCH":604,"BSTAR":0.0014315,"MEAN_MOTION_DOT":0.00725505,"MEAN_MOTION_DDOT":0.0002493},{"OBJECT_NAME":"STARLINK-1750","OBJECT_ID":"2020-062N","EPOCH":"2026-03-03T05:20:01.463424","MEAN_MOTION":16.46245969,"ECCENTRICITY":0.0006444,"INCLINATION":53.0217,"RA_OF_ASC_NODE":322.9728,"ARG_OF_PERICENTER":239.7336,"MEAN_ANOMALY":120.3075,"EPHEMERIS_TYPE":0,"CLASSIFICATION_TYPE":"U","NORAD_CAT_ID":46337,"ELEMENT_SET_NO":999,"REV_AT_EPOCH":30449,"BSTAR":0.00030997,"MEAN_MOTION_DOT":0.14097257,"MEAN_MOTION_DDOT":1.2481e-5}]
