COSMOS 1812             
1 17295U 87003A   26062.30989476  .01811126 -12154-5  75298-3 0  9997
2 17295  82.4718 202.9133 0007632 288.9282  71.1181 16.23100629143459
IRIDIUM 51              
1 25262U 98018A   26062.19110010  .00610843  16141-3  12763-2 0  9991
2 25262  86.3538 284.0601 0018186 310.7344  49.2361 15.98721156487312
CZ-2D DEB               
1 31409U 05024J   26060.90543068  .00239460  23346-4  72484-3 0  9991
2 31409  97.1482 103.0739 0004089 145.2826 214.8716 15.92111318117181
ZIYUAN 3-01 (ZY 3-01)   
1 38046U 12001A   26062.30861852  .00375384  59323-4  86807-3 0  9992
2 38046  97.1548 136.8274 0001700 245.7415 114.3685 15.97188649787686
HUMSAT-D                
1 39433U 13066T   26062.00126450  .00922834  40380-3  19747-2 0  9998
2 39433  97.4837  74.4880 0007038 162.6196 197.5324 15.98622915670396
H-2A DEB                
1 43675U 18084E   26062.17657374  .01102434  59680-3  24597-2 0  9997
2 43675  98.0073 277.9348 0003265 301.6673  58.4283 15.97952475402084
SPACEBEE-7              
1 43816U 18099BL  26061.75586284  .01193306  78424-3  19892-2 0  9991
2 43816  97.4408 148.0919 0007821 270.3555  89.6828 16.03076494398105
STARLINK-1112           
1 44925U 20001M   26062.14188514  .00623257  19939-3  86892-3 0  9990
2 44925  53.0344 275.0662 0004106 260.7412  99.3155 16.05340450340272
STARLINK-1210           
1 45207U 20012AF  26062.10996654  .03659733  12044-4  86785-3 0  9997
2 45207  53.0002 292.3392 0006775 251.9577 108.0726 16.28829972335864
STARLINK-1294           
1 45551U 20025W   26062.09590104  .12534528  12493-4  33071-3 0  9993
2 45551  53.0150   7.4359 0003065 236.3782 123.6975 16.45728679325906
STARLINK-1484           
1 45756U 20038AC  26062.25001156  .00362575  64728-4  80952-3 0  9992
2 45756  52.9991  89.8839 0007006  34.1852 183.5311 15.97271812  6062
STARLINK-1601           
1 46120U 20057D   26062.10483101  .03094902  11907-4  11470-2 0  9995
2 46120  53.0305 288.3193 0006761 253.0970 106.9328 16.23754622307165
STARLINK-1710           
1 46330U 20062F   26062.13723063  .07607204  12215-4  86604-3 0  9995
2 46330  53.0175 310.0469 0006788 246.8125 113.2204 16.36092650304670
STARLINK-1723           
1 46333U 20062J   26062.21362027  .01711819  25876-2  12752-2 0  9995
2 46333  53.0373 355.4811 0006545 196.3701 163.7125 16.15366371304030
STARLINK-1738           
1 46336U 20062M   26062.25001156  .00725505  24930-3  14315-2 0  9999
2 46336  53.0284 313.6853 0005119 134.8092 173.6475 15.99460274  6048
STARLINK-1750           
1 46337U 20062N   26062.22223916  .14097257  12481-4  30997-3 0  9992
2 46337  53.0217 322.9728 0006444 239.7336 120.3075 16.46245969304497
